STARLINK-2192
1 27769C 21017AZ  21325.15226587  .00003449  00000-0  23112-3 0  3258
2 27769  53.0541  37.5434 0001267  68.3575 151.5913 15.06394168    18
